[{"OBJECT_NAME":"STARLINK-34590","OBJECT_ID":"2025-139M","EPOCH":"2026-03-09T12:36:45.895680","MEAN_MOTION":15.30190641,"ECCENTRICITY":0.00012551,"INCLINATION":53.1577,"RA_OF_ASC_NODE":128.1794,"ARG_OF_PERICENTER":77.9254,"MEAN_ANOMALY":282.1887,"EPHEMERIS_TYPE":0,"CLASSIFICATION_TYPE":"U","NORAD_CAT_ID":64675,"ELEMENT_SET_NO":999,"REV_AT_EPOCH":4025,"BSTAR":0.0009494248,"MEAN_MOTION_DOT":0.00027857,"MEAN_MOTION_DDOT":0},{"OBJECT_NAME":"KUIPER-00213","OBJECT_ID":"2026-030P","EPOCH":"2026-03-09T22:00:01.999584","MEAN_MOTION":15.32626943,"ECCENTRICITY":0.00152813,"INCLINATION":51.8816,"RA_OF_ASC_NODE":218.5142,"ARG_OF_PERICENTER":64.2462,"MEAN_ANOMALY":206.8369,"EPHEMERIS_TYPE":0,"CLASSIFICATION_TYPE":"U","NORAD_CAT_ID":67777,"ELEMENT_SET_NO":999,"REV_AT_EPOCH":502,"BSTAR":0.0016072376,"MEAN_MOTION_DOT":0.00051551,"MEAN_MOTION_DDOT":0}]
